{
  "norad_id": 63278,
  "name": "STARLINK-33660",
  "history": [
    {
      "epoch": "2026-03-28T14:34:04.412928",
      "apogee_km": 484.1963637329127,
      "perigee_km": 481.8073151890121,
      "latitude_deg": -8.202500921653911,
      "longitude_deg": -153.92843007994816,
      "semi_major_axis_km": 6861.138839460962,
      "eccentricity": 0.0001741,
      "inclination_deg": 42.9995,
      "raan_deg": 135.1968,
      "arg_perigee_deg": 255.8732,
      "mean_anomaly_deg": 104.1926,
      "mean_motion_rev_day": 15.27595782
    }
  ]
}