{"fetched_at":"2026-03-30T06:02:59Z","count":15439,"tles":[{"name":"STARLINK-33660","line1":"1 63278U 25053P   26087.60699552  .00019840  00000+0  72818-3 0  9996","line2":"2 63278  42.9995 135.1968 0001741 255.8732 104.1926 15.27595782 59080","category":"Starlink"}]}